{
  "generated_at": "2026-06-06T08:33:28+00:00",
  "source": "celestrak.org",
  "satellite_count": 9,
  "satellites": [
    {
      "id": "terra",
      "name": "TERRA",
      "platform": "EOS",
      "sensor": "MODIS",
      "swath_km": 2330,
      "color": "#39d0d8",
      "norad": 25994,
      "tle1": "1 25994U 99068A   26156.93524367  .00000443  00000+0  99242-4 0  9990",
      "tle2": "2 25994  97.9461 206.9271 0000845 249.6338 234.0500 14.61094220407965"
    },
    {
      "id": "aqua",
      "name": "AQUA",
      "platform": "EOS",
      "sensor": "MODIS",
      "swath_km": 2330,
      "color": "#2bb673",
      "norad": 27424,
      "tle1": "1 27424U 02022A   26156.90282674  .00000933  00000+0  19543-3 0  9992",
      "tle2": "2 27424  98.4271 125.9608 0001543  55.7883  22.2980 14.62140937281621"
    },
    {
      "id": "snpp",
      "name": "SUOMI NPP",
      "platform": "JPSS",
      "sensor": "VIIRS",
      "swath_km": 3000,
      "color": "#ff8c42",
      "norad": 37849,
      "tle1": "1 37849U 11061A   26156.92179235  .00000093  00000+0  65074-4 0  9995",
      "tle2": "2 37849  98.7950  97.8751 0002125  30.9722 329.1579 14.19515038756844"
    },
    {
      "id": "noaa20",
      "name": "NOAA 20",
      "platform": "JPSS",
      "sensor": "VIIRS",
      "swath_km": 3000,
      "color": "#ffaa00",
      "norad": 43013,
      "tle1": "1 43013U 17073A   26156.86447900  .00000083  00000+0  60301-4 0  9991",
      "tle2": "2 43013  98.7769  96.4279 0000572  37.9960 322.1256 14.19509642442860"
    },
    {
      "id": "noaa21",
      "name": "NOAA 21",
      "platform": "JPSS",
      "sensor": "VIIRS",
      "swath_km": 3000,
      "color": "#ff5a3a",
      "norad": 54234,
      "tle1": "1 54234U 22150A   26156.89779361  .00000075  00000+0  56278-4 0  9991",
      "tle2": "2 54234  98.7057  95.8767 0001023 182.8928 177.2243 14.19563489184944"
    },
    {
      "id": "sentinel2a",
      "name": "SENTINEL-2A",
      "platform": "Copernicus",
      "sensor": "MSI",
      "swath_km": 290,
      "color": "#b388ff",
      "norad": 40697,
      "tle1": "1 40697U 15028A   26156.95594823  .00000179  00000+0  85021-4 0  9993",
      "tle2": "2 40697  98.5682 231.9665 0001069  83.3120 276.8184 14.30820554572126"
    },
    {
      "id": "sentinel2b",
      "name": "SENTINEL-2B",
      "platform": "Copernicus",
      "sensor": "MSI",
      "swath_km": 290,
      "color": "#9d6dff",
      "norad": 42063,
      "tle1": "1 42063U 17013A   26157.15852481  .00000241  00000+0  10841-3 0  9995",
      "tle2": "2 42063  98.5689 232.0880 0001226  84.2600 275.8723 14.30814337483065"
    },
    {
      "id": "sentinel3a",
      "name": "SENTINEL-3A",
      "platform": "Copernicus",
      "sensor": "OLCI",
      "swath_km": 1270,
      "color": "#7a4fff",
      "norad": 41335,
      "tle1": "1 41335U 16011A   26156.92565675  .00000132  00000+0  72536-4 0  9992",
      "tle2": "2 41335  98.6250 224.4705 0001326 105.1973 254.9354 14.26736926536451"
    },
    {
      "id": "sentinel3b",
      "name": "SENTINEL-3B",
      "platform": "Copernicus",
      "sensor": "OLCI",
      "swath_km": 1270,
      "color": "#5e3bff",
      "norad": 43437,
      "tle1": "1 43437U 18039A   26156.47801780  .00000122  00000+0  68428-4 0  9993",
      "tle2": "2 43437  98.6250 224.1778 0000937  75.1452 284.9833 14.26738325422452"
    }
  ]
}